OCEANSAT-2              
1 35931U 09051A   26200.86870748  .00000043  00000+0  55281-4 0  9995
2 35931  98.2324 184.4571 0017635 140.1068 220.1398 13.99656128883906
PLEIADES 1A             
1 38012U 11076F   26200.85792462 -.00000091  00000+0 -98409-5 0  9998
2 38012  98.1963 275.5200 0001630  77.2799  31.9928 14.58547469776751
PLEIADES 1B             
1 39019U 12068A   26200.87113465  .00000056  00000+0  21915-4 0  9996
2 39019  98.1933 275.4706 0001487  77.6822 282.4544 14.58535618725616
PATHFINDER 1            
1 41787U 16059E   26200.72467157  .00000251  00000+0  51891-4 0  9992
2 41787  97.8179 198.5344 0029946 101.9832 258.4732 14.67695974524480
PAZ                     
1 43215U 18020A   26200.84355148  .00000835  00000+0  42949-4 0  9991
2 43215  97.4458 207.7658 0001671  88.3935 271.7490 15.19152079465960
NOVASAR 1               
1 43619U 18071B   26200.88999437 -.00000629  00000+0 -50963-4 0  9992
2 43619  97.5022  71.8621 0001540  63.4642 296.6738 14.96267093427821
PLEIADES NEO 3          
1 48268U 21034A   26200.33107218  .00000157  00000+0  26538-4 0  9993
2 48268  97.8937 274.6355 0001393  96.6622 263.4750 14.81672056282416
PLEIADES NEO 4          
1 49070U 21073E   26201.04015098  .00000192  00000+0  31064-4 0  9990
2 49070  97.8942 275.3305 0001349 102.2167 257.9196 14.81672429266234
NOAA 21 (JPSS-2)        
1 54234U 22150A   26200.80966052  .00000016  00000+0  28150-4 0  9990
2 54234  98.7059 139.0510 0002913  96.4097 263.7411 14.19541530191173
PARS 1                  
1 59065U 24039Q   26200.87002031  .00006586  00000+0  13515-3 0  9996
2 59065  97.4846 182.8391 0009191  11.2154 348.9298 15.46351156133693
